ONEWEB-0504             
1 54122U 22138K   24120.48980918 -.00000013  00000+0 -64772-4 0  9991
2 54122  87.9108  99.9468 0001571  85.4510 274.6802 13.19725876 74123
ONEWEB-0505             
1 54123U 22138L   24120.48664757 -.00000013  00000+0 -64263-4 0  9997
2 54123  87.9106  99.9430 0001365 104.1029 256.0255 13.19726582 74105
ONEWEB-0506             
1 54124U 22138M   24120.46137692  .00000002  00000+0 -28115-4 0  9992
2 54124  87.9106  99.9450 0001784  93.3112 266.8225 13.19726443 74095
ONEWEB-0507             
1 54125U 22138N   24120.48191067  .00000001  00000+0 -31088-4 0  9993
2 54125  87.9115  99.9580 0001850  97.3275 262.8068 13.19726880 74140
ONEWEB-0508             
1 54126U 22138P   24120.47873790 -.00000010  00000+0 -58079-4 0  9993
2 54126  87.9112  99.9535 0001773 100.8345 259.2987 13.19728101 74126
ONEWEB-0509             
1 54127U 22138Q   24120.45348188  .00000000  00000+0 -32706-4 0  9997
2 54127  87.9106  99.9488 0001839  91.0824 269.0519 13.19725810 74093
ONEWEB-0510             
1 54128U 22138R   24120.57896263  .00000091  00000+0  19279-3 0  9991
2 54128  87.9197  69.3513 0002434  88.3895 271.7517 13.20771398 76503
ONEWEB-0511             
1 54129U 22138S   24120.45031923  .00000026  00000+0  31570-4 0  9990
2 54129  87.9105  99.9519 0001684  77.5500 282.5821 13.19726505 74129
